[{"OBJECT_NAME":"JILIN-1 08","OBJECT_ID":"2018-008F","EPOCH":"2026-03-09T22:37:53.184288","MEAN_MOTION":15.32205976,"ECCENTRICITY":0.00081321,"INCLINATION":97.1902,"RA_OF_ASC_NODE":90.9961,"ARG_OF_PERICENTER":76.0646,"MEAN_ANOMALY":284.15,"EPHEMERIS_TYPE":0,"CLASSIFICATION_TYPE":"U","NORAD_CAT_ID":43160,"ELEMENT_SET_NO":999,"REV_AT_EPOCH":44974,"BSTAR":0.00036689195,"MEAN_MOTION_DOT":0.00011349,"MEAN_MOTION_DDOT":0},{"OBJECT_NAME":"STARLINK-32126","OBJECT_ID":"2024-132T","EPOCH":"2026-03-09T06:49:53.598432","MEAN_MOTION":15.30200248,"ECCENTRICITY":0.00015104,"INCLINATION":53.1613,"RA_OF_ASC_NODE":54.6428,"ARG_OF_PERICENTER":99.2811,"MEAN_ANOMALY":260.8361,"EPHEMERIS_TYPE":0,"CLASSIFICATION_TYPE":"U","NORAD_CAT_ID":60295,"ELEMENT_SET_NO":999,"REV_AT_EPOCH":9149,"BSTAR":-6.0342646e-5,"MEAN_MOTION_DOT":-2.146e-5,"MEAN_MOTION_DDOT":0}]
